ORBCOMM FM103           
1 40091U 14040F   25123.78481524  .00001213  00000+0  29746-3 0  9992
2 40091  47.0052 227.4892 0000873  78.7140 281.3843 14.58106807557627
ORBCOMM FM114           
1 41179U 15081A   25123.73912753  .00001306  00000+0  31724-3 0  9996
2 41179  47.0011 136.7759 0001561 172.8503 187.2405 14.58139370497989
ORBCOMM FM119           
1 41180U 15081B   25123.79363145  .00001229  00000+0  30107-3 0  9997
2 41180  47.0017  45.8154 0001385 239.9120 120.1629 14.58077577499245
ORBCOMM FM105           
1 41181U 15081C   25123.83728841  .00000579  00000+0  20841-3 0  9992
2 41181  47.0028  46.2525 0001001 128.6305 231.4665 14.45186233494336
ORBCOMM FM110           
1 41182U 15081D   25123.71744155  .00001232  00000+0  30199-3 0  9990
2 41182  47.0005 136.2727 0002803 308.1788  51.8844 14.58027655497856
ORBCOMM FM118           
1 41183U 15081E   25123.76977403  .00000763  00000+0  20127-3 0  9998
2 41183  47.0027 136.4768 0003253 300.4717  59.5847 14.57974570497961
ORBCOMM FM112           
1 41184U 15081F   25123.83880256  .00001413  00000+0  34052-3 0  9991
2 41184  47.0005  44.7623 0000697 186.1909 173.8968 14.58096123499191
ORBCOMM FM113           
1 41185U 15081G   25123.81558873  .00001673  00000+0  39644-3 0  9997
2 41185  47.0011  45.1896 0000972 213.5363 146.5461 14.58092516499176
